#dP2023  6  9  0  0  0.00000000      96 __u+U IGS14 FIT  IAC
## 2265 432000.00000000   900.00000000 60104 0.0000000000000
+  101   C06C07C08C09C10C13C16C25C26C27C28C29C34C35C37C38C39
+        C40C43C44E02E03E04E05E07E08E09E10E11E12E13E14E15E18
+        E19E21E24E25E26E27E30E31E33E34E36G01G03G04G05G06G07
+        G08G09G10G11G12G13G14G15G16G17G18G19G20G21G22G23G24
+        G25G26G27G28G29G30G31G32J02J03J04R01R02R03R04R05R07
+        R08R09R11R12R13R14R15R16R17R18R19R20R21R22R24R25  0
++         7  8  7  7  8  7  7  0  0  0  0  0  0  0  0  7  7
++         7  0  0  4  4  4  4  4  5  4  4  4  4  5  4  4  4
++         4  4  4  4  4  4  4  4  4  4  4  3  3  4  3  4  3
++         3  4  3  4  4  3  3  4  4  4  3  4  4  3  4  3  3
++         4  4  3  4  3  3  4  3  9  9  9  8  7  7  7  7  7
++         7  7  7  6  8  7  7  7  7  7  8  8  6  7  7  8  0
%c M  cc GPS ccc cccc cccc cccc cccc ccccc ccccc ccccc ccccc
%c cc cc ccc ccc cccc cccc cccc cccc ccccc ccccc ccccc ccccc
%f  1.2500000  1.025000000  0.00000000000  0.000000000000000
%f  0.0000000  0.000000000  0.00000000000  0.000000000000000
%i    0    0    0    0      0      0      0      0         0
%i    0    0    0    0      0      0      0      0         0
/* INFORMATION & ANALYSIS CENTER (IAC)            FINAL DATA
/* S/V CLOCKS ARE ALIGNED TO GNSS TIME                      
/* G:C1WC2W R:C1PC2P E:C1XC5X C:C2IC6I J:C1CC2S             
/* PCV:IGS20_2247 OL/AL:FES2004  NONE     YN ORB:CoN CLK:CoN
*  2023 06 09  5  0  0.00000000
PC06  -6680.691117  23792.031225 -34110.452490   -180.938254
PC07 -16638.969327  35842.586505  14493.235203   -144.581858
PC08  -1694.560242  38740.127032  16774.037735    464.459317
PC09   4202.558603  26593.515113 -31877.079549    556.191272
PC10  -8878.762698  35512.207223  20753.627338    -80.897050
PC13   3280.377235  41019.091439   9959.544734    292.458178
PC16  -9134.539232  22249.434651 -34399.009558     49.704548
PC25  16062.524804  -3701.974760  22511.872284 999999.999999
PC26      0.000000      0.000000      0.000000 999999.999999
PC27      0.000000      0.000000      0.000000 999999.999999
PC28      0.000000      0.000000      0.000000 999999.999999
PC29      0.000000      0.000000      0.000000 999999.999999
PC34  25853.102829   7736.499264   7051.264640 999999.999999
PC35      0.000000      0.000000      0.000000 999999.999999
PC37      0.000000      0.000000      0.000000 999999.999999
PC38  -7058.276491  34851.088077  22799.324896     83.885674
PC39 -13596.377226  20777.769749 -34056.177335     -3.243241
PC40 -23749.212499  31688.908427  14118.665500    -25.688533
PC43  26116.705845  -3691.069146  -9096.850041 999999.999999
PC44      0.000000      0.000000      0.000000 999999.999999
PE02 -15097.466165  18985.816829 -16974.663920     42.982043
PE03 -24466.447777  14838.494686  -7542.101609    -24.585205
PE04   7531.422282 -18937.073479  21481.628327   -140.722949
PE05 -27368.590194   1935.958572  11110.789064    -59.705029
PE07  13959.823235  12101.832585 -23118.232013    -51.298117
PE08  -7895.067346  18843.736384 -21407.392693    -96.111585
PE09 -13734.926319 -12074.434711  23279.734589    -43.718119
PE10 -12510.547277 -22432.545732 -14724.581927   -539.855751
PE11 -20299.539953 -20951.042299  -5083.384767   2168.695910
PE12  -3367.872279 -20475.650823 -21127.418002   -572.480434
PE13  19896.476651  21125.039836   5808.200511    -19.242961
PE14  20872.806582 -19295.362597 -15718.997756    248.865279
PE15   3081.162475  20266.599384  21347.096039    -28.072861
PE18 -13514.507373  14388.202150  12674.474549    160.642458
PE19  25886.052018 -13412.092819   5138.111126  -2341.736091
PE21  16763.077329   1140.500191  24369.010831   -533.928932
PE24  -8419.348403 -22280.870694 -17575.867213   -144.834084
PE25 -16703.674742  -1542.949924 -24382.347877   -606.450035
PE26  24773.137188   8950.934524 -13507.355956    128.707560
PE27   8866.174730  21722.489363  18052.676372    -70.124068
PE30  -4628.893367  29233.908118    646.686935   -240.555695
PE31   4172.945678 -29281.605204  -1161.899931   -525.506284
PE33  15399.437771  -7462.669041 -24155.124847   -443.395171
PE34 -15271.870229   7605.602901  24174.705801    -49.840219
PE36 -24842.046512  -9620.491622  12907.885294    -68.526803
PG01 -21673.971816 -14034.512883   6620.804012    179.563465
PG03 -13468.239779  -6873.788421  21712.591828   -276.764360
PG04 -23572.808476  -1908.344114  12215.308069     63.364566
PG05   6393.536180  21673.496179 -14041.536441   -130.397828
PG06  -3913.982103  15380.393540  21336.838071    585.890875
PG07 -19698.408818   -742.526332 -17561.951845    157.143834
PG08 -15069.303135  -9414.383291 -19932.923601   -126.489736
PG09 -25495.498831   6858.385084   3025.881392   -140.032575
PG10  11045.282003 -21895.220067  -9615.498659    -40.390012
PG11   9741.134645  21475.415023  12271.306426   -228.327102
PG12  11912.186844  10904.294133  20823.205104   -386.307894
PG13   6677.983997  13959.011374 -21785.995938    531.490147
PG14 -13440.973679  19419.124969 -11983.647717     84.591493
PG15  16575.915837   8048.035193 -19675.981509     47.166264
PG16  -1377.375635 -23709.499292 -11711.728608   -493.301828
PG17 -19302.804362  13852.830055  12411.674228    717.763911
PG18  17481.438477  -2299.387923 -19914.907055   -300.259144
PG19 -12390.475373  15031.486767  17685.607318    328.106346
PG20   2411.340603  26143.952016  -4601.801385    429.017291
PG21 -20953.500739 -16951.517924  -1562.770217    153.257050
PG22   8514.856270 -16168.194265  19672.709229    494.955309
PG23  14893.381471 -11474.997076 -18691.933188     31.467611
PG24  22112.647778  15010.984294   1480.138570   -218.449992
PG25  15660.938679  -2791.302115  20917.410600    448.567995
PG26   4191.018086 -26016.852429    923.968409    239.427785
PG27  -2961.776754 -14975.044093 -21963.724532     20.224702
PG28   5531.847231 -14771.780467  21348.363901     82.686960
PG29  25935.165223  -2914.355163   5144.323776   -602.225101
PG30 -12628.186653   9652.055636 -21181.317547   -512.200769
PG31  -5411.387228 -20310.216385  15801.755415   -217.783930
PG32  16413.861866 -15777.638801  13695.745122   -496.059758
PJ02 -23310.253328  31057.476883 -11640.092950     -0.410501
PJ03 -27256.221095  22884.818823  27769.636198      6.058133
PJ04 -32426.419796  26901.057759   8358.989002     95.206570
PR01 -18746.937031   7505.912339  15579.014032     59.070301
PR02 -18554.386969  17462.834511  -1727.897391    -22.731330
PR03  -7079.024647  17334.758075 -17301.704408     79.339331
PR04   7802.715153   7432.943887 -23087.467740    190.471865
PR05  18584.654754  -6288.102869 -16274.181764    113.882099
PR07   6267.124674 -17002.025680  17974.420216     57.645099
PR08  -8141.129173  -7324.320749  23100.003261    -71.200989
PR09   5986.354142 -15757.664542  19196.518615    124.800758
PR11 -10052.030887 -20711.656449 -10991.818493    -75.095980
PR12 -11683.705861  -3125.225331 -22429.106391     27.984551
PR13  -6824.732817  13846.112706 -20317.216309    -35.902702
PR14   3058.096110  24800.765427  -5052.499499     24.753844
PR15  10295.779804  19949.603762  12125.771694     88.745614
PR16  11620.593783   3386.831415  22460.184278     15.438475
PR17   4401.588587  12050.040736  22055.341070    637.370140
PR18  19224.309445  12100.619935  11561.177043     85.678651
PR19  24158.176130   7376.514934  -3575.394443   -235.621147
PR20  14580.060813  -4224.217996 -20486.107902    -94.335026
PR21  -5766.688506 -12262.624114 -21612.078180    -13.831444
PR22 -19412.956130 -12731.564252 -10564.837015     79.860552
PR24 -14039.801652   5453.467807  20591.032858    -10.869539
PR25  -3552.633315 -12467.999690 -21964.509176     60.111786
EOF
